{
  "type": "FeatureCollection",
  "features": [
    {
      "type": "Feature",
      "properties": {
        "norad_id": 24876,
        "name": "GPS BIIR-2  (PRN 13)",
        "group": "gps-ops",
        "lat": 21.072031811135773,
        "lon": 121.21257248160293,
        "alt_km": 19959.67895074313,
        "timestamp": "2025-12-06T18:50:10.426891+00:00",
        "meta_object_name": "GPS BIIR-2  (PRN 13)",
        "meta_object_id": "1997-035A",
        "meta_epoch": "2025-12-05T18:03:38.663712",
        "meta_mean_motion": 2.00563458,
        "meta_eccentricity": 0.00967066,
        "meta_inclination": 55.8919,
        "meta_ra_of_asc_node": 106.1422,
        "meta_arg_of_pericenter": 57.0175,
        "meta_mean_anomaly": 303.8711,
        "meta_ephemeris_type": 0,
        "meta_classification_type": "U",
        "meta_norad_cat_id": 24876,
        "meta_element_set_no": 999,
        "meta_rev_at_epoch": 20807,
        "meta_bstar": 0,
        "meta_mean_motion_dot": 4e-08,
        "meta_mean_motion_ddot": 0,
        "tle_line1": "1 24876U 97035A   25339.75253083  .00000004  00000+0  00000+0 0  9998",
        "tle_line2": "2 24876  55.8919 106.1422 0096706  57.0175 303.8711  2.00563458208078"
      },
      "geometry": {
        "type": "Point",
        "coordinates": [
          121.21257248160293,
          21.072031811135773
        ]
      }
    },
    {
      "type": "Feature",
      "properties": {
        "norad_id": 26360,
        "name": "GPS BIIR-4  (PRN 20)",
        "group": "gps-ops",
        "lat": 46.50431444490652,
        "lon": 159.63583941816032,
        "alt_km": 20233.184277183125,
        "timestamp": "2025-12-06T18:50:10.426919+00:00",
        "meta_object_name": "GPS BIIR-4  (PRN 20)",
        "meta_object_id": "2000-025A",
        "meta_epoch": "2025-12-06T03:12:36.741312",
        "meta_mean_motion": 2.00568095,
        "meta_eccentricity": 0.00388194,
        "meta_inclination": 55.0413,
        "meta_ra_of_asc_node": 27.1052,
        "meta_arg_of_pericenter": 241.3509,
        "meta_mean_anomaly": 126.6483,
        "meta_ephemeris_type": 0,
        "meta_classification_type": "U",
        "meta_norad_cat_id": 26360,
        "meta_element_set_no": 999,
        "meta_rev_at_epoch": 18740,
        "meta_bstar": 0,
        "meta_mean_motion_dot": -7.7e-07,
        "meta_mean_motion_ddot": 0,
        "tle_line1": "1 26360U 00025A   25340.13375858 -.00000077  00000+0  00000+0 0  9991",
        "tle_line2": "2 26360  55.0413  27.1052 0038819 241.3509 126.6483  2.00568095187402"
      },
      "geometry": {
        "type": "Point",
        "coordinates": [
          159.63583941816032,
          46.50431444490652
        ]
      }
    },
    {
      "type": "Feature",
      "properties": {
        "norad_id": 26407,
        "name": "GPS BIIR-5  (PRN 22)",
        "group": "gps-ops",
        "lat": -33.17359481630726,
        "lon": -164.53889326369315,
        "alt_km": 19863.98055540447,
        "timestamp": "2025-12-06T18:50:10.426936+00:00",
        "meta_object_name": "GPS BIIR-5  (PRN 22)",
        "meta_object_id": "2000-040A",
        "meta_epoch": "2025-12-06T02:15:28.524096",
        "meta_mean_motion": 2.00567762,
        "meta_eccentricity": 0.01263695,
        "meta_inclination": 54.8924,
        "meta_ra_of_asc_node": 222.8334,
        "meta_arg_of_pericenter": 301.6877,
        "meta_mean_anomaly": 237.2417,
        "meta_ephemeris_type": 0,
        "meta_classification_type": "U",
        "meta_norad_cat_id": 26407,
        "meta_element_set_no": 999,
        "meta_rev_at_epoch": 18607,
        "meta_bstar": 0,
        "meta_mean_motion_dot": 4.6e-07,
        "meta_mean_motion_ddot": 0,
        "tle_line1": "1 26407U 00040A   25340.09408014  .00000046  00000+0  00000+0 0  9991",
        "tle_line2": "2 26407  54.8924 222.8334 0126369 301.6877 237.2417  2.00567762186079"
      },
      "geometry": {
        "type": "Point",
        "coordinates": [
          -164.53889326369315,
          -33.17359481630726
        ]
      }
    },
    {
      "type": "Feature",
      "properties": {
        "norad_id": 27663,
        "name": "GPS BIIR-8  (PRN 16)",
        "group": "gps-ops",
        "lat": 54.66815036607474,
        "lon": -39.40146248068962,
        "alt_km": 19885.951007472468,
        "timestamp": "2025-12-06T18:50:10.426950+00:00",
        "meta_object_name": "GPS BIIR-8  (PRN 16)",
        "meta_object_id": "2003-005A",
        "meta_epoch": "2025-12-05T09:55:38.654112",
        "meta_mean_motion": 2.005712,
        "meta_eccentricity": 0.01471646,
        "meta_inclination": 54.9252,
        "meta_ra_of_asc_node": 222.6697,
        "meta_arg_of_pericenter": 51.6986,
        "meta_mean_anomaly": 131.7082,
        "meta_ephemeris_type": 0,
        "meta_classification_type": "U",
        "meta_norad_cat_id": 27663,
        "meta_element_set_no": 999,
        "meta_rev_at_epoch": 16742,
        "meta_bstar": 0,
        "meta_mean_motion_dot": 5.3e-07,
        "meta_mean_motion_ddot": 0,
        "tle_line1": "1 27663U 03005A   25339.41364183  .00000053  00000+0  00000+0 0  9990",
        "tle_line2": "2 27663  54.9252 222.6697 0147164  51.6986 131.7082  2.00571200167424"
      },
      "geometry": {
        "type": "Point",
        "coordinates": [
          -39.40146248068962,
          54.66815036607474
        ]
      }
    },
    {
      "type": "Feature",
      "properties": {
        "norad_id": 28190,
        "name": "GPS BIIR-11 (PRN 19)",
        "group": "gps-ops",
        "lat": -51.8625927220877,
        "lon": 166.5050793923135,
        "alt_km": 20166.34395154949,
        "timestamp": "2025-12-06T18:50:10.426963+00:00",
        "meta_object_name": "GPS BIIR-11 (PRN 19)",
        "meta_object_id": "2004-009A",
        "meta_epoch": "2025-12-06T01:17:13.122240",
        "meta_mean_motion": 2.0056089,
        "meta_eccentricity": 0.01082534,
        "meta_inclination": 54.9918,
        "meta_ra_of_asc_node": 283.4884,
        "meta_arg_of_pericenter": 167.5282,
        "meta_mean_anomaly": 276.9875,
        "meta_ephemeris_type": 0,
        "meta_classification_type": "U",
        "meta_norad_cat_id": 28190,
        "meta_element_set_no": 999,
        "meta_rev_at_epoch": 15907,
        "meta_bstar": 0,
        "meta_mean_motion_dot": -3.9e-07,
        "meta_mean_motion_ddot": 0,
        "tle_line1": "1 28190U 04009A   25340.05362410 -.00000039  00000+0  00000+0 0  9999",
        "tle_line2": "2 28190  54.9918 283.4884 0108253 167.5282 276.9875  2.00560890159071"
      },
      "geometry": {
        "type": "Point",
        "coordinates": [
          166.5050793923135,
          -51.8625927220877
        ]
      }
    },
    {
      "type": "Feature",
      "properties": {
        "norad_id": 28474,
        "name": "GPS BIIR-13 (PRN 02)",
        "group": "gps-ops",
        "lat": -37.2365297945869,
        "lon": -59.21424346364341,
        "alt_km": 19733.502204010634,
        "timestamp": "2025-12-06T18:50:10.426974+00:00",
        "meta_object_name": "GPS BIIR-13 (PRN 02)",
        "meta_object_id": "2004-045A",
        "meta_epoch": "2025-12-05T20:20:11.876352",
        "meta_mean_motion": 2.0056901,
        "meta_eccentricity": 0.01706228,
        "meta_inclination": 55.2441,
        "meta_ra_of_asc_node": 332.6831,
        "meta_arg_of_pericenter": 308.9503,
        "meta_mean_anomaly": 46.5475,
        "meta_ephemeris_type": 0,
        "meta_classification_type": "U",
        "meta_norad_cat_id": 28474,
        "meta_element_set_no": 999,
        "meta_rev_at_epoch": 15454,
        "meta_bstar": 0,
        "meta_mean_motion_dot": -7.7e-07,
        "meta_mean_motion_ddot": 0,
        "tle_line1": "1 28474U 04045A   25339.84735968 -.00000077  00000+0  00000+0 0  9993",
        "tle_line2": "2 28474  55.2441 332.6831 0170622 308.9503  46.5475  2.00569010154543"
      },
      "geometry": {
        "type": "Point",
        "coordinates": [
          -59.21424346364341,
          -37.2365297945869
        ]
      }
    },
    {
      "type": "Feature",
      "properties": {
        "norad_id": 28874,
        "name": "GPS BIIRM-1 (PRN 17)",
        "group": "gps-ops",
        "lat": -55.051588331978806,
        "lon": -168.05402510733853,
        "alt_km": 19861.564041983398,
        "timestamp": "2025-12-06T18:50:10.426986+00:00",
        "meta_object_name": "GPS BIIRM-1 (PRN 17)",
        "meta_object_id": "2005-038A",
        "meta_epoch": "2025-12-06T00:39:47.683008",
        "meta_mean_motion": 2.00593123,
        "meta_eccentricity": 0.01317527,
        "meta_inclination": 55.0379,
        "meta_ra_of_asc_node": 280.9712,
        "meta_arg_of_pericenter": 293.1135,
        "meta_mean_anomaly": 151.2056,
        "meta_ephemeris_type": 0,
        "meta_classification_type": "U",
        "meta_norad_cat_id": 28874,
        "meta_element_set_no": 999,
        "meta_rev_at_epoch": 14796,
        "meta_bstar": 0,
        "meta_mean_motion_dot": -3.6e-07,
        "meta_mean_motion_ddot": 0,
        "tle_line1": "1 28874U 05038A   25340.02763522 -.00000036  00000+0  00000+0 0  9994",
        "tle_line2": "2 28874  55.0379 280.9712 0131752 293.1135 151.2056  2.00593123147964"
      },
      "geometry": {
        "type": "Point",
        "coordinates": [
          -168.05402510733853,
          -55.051588331978806
        ]
      }
    }
  ]
}